{"version": 0.6, "generator": "Overpass API 0.7.62.1 084b4234", "osm3s": {"timestamp_osm_base": "2024-10-10T14:05:06Z", "copyright": "The data included in this document is from www.openstreetmap.org. The data is made available under ODbL."}, "elements": [{"type": "node", "id": 357303425, "lat": 39.9606683, "lon": -75.1471214, "tags": {"addr:city": "Philadelphia", "addr:housenumber": "500", "addr:postcode": "19123", "addr:state": "PA", "addr:street": "Spring Garden Street", "amenity": "bar", "brewery": "yes", "craft": "brewery", "microbrewery": "yes", "name": "Yards Brewing Company", "operator": "Yards Brewing Company", "restaurant": "yes", "website": "https://yardsbrewing.com/", "wikidata": "Q16903914", "wikipedia": "en:Yards Brewing Company"}}, {"type": "node", "id": 1033935437, "lat": 39.9524202, "lon": -75.1755247, "tags": {"addr:housenumber": "2101", "addr:street": "Chestnut Street", "amenity": "bar", "contact:phone": "+1 215-568-3355", "contact:website": "https://mixbarandgrillphilly.com/location/mix-bar-grill", "description": "The bar is open until whenever the rush ends.", "name": "Mix Bar & Grill", "opening_hours": "Mo-We,Su 11:00-22:00; Th-Sa 11:00-23:00", "outdoor_seating": "yes"}}, {"type": "node", "id": 1167079387, "lat": 39.9417025, "lon": -75.1492453, "tags": {"addr:housenumber": "401", "addr:street": "South Street", "amenity": "bar", "check_date": "2023-04-12", "contact:facebook": "https://www.facebook.com/milkboysouthstreet", "contact:phone": "+1 215-925-6455", "contact:website": "https://www.milkboy.tv/southstreet", "name": "MilkBoy South Street", "opening_hours": "Mo-Tu,Su 11:00-24:00; We-Sa 11:00-25:00"}}, {"type": "node", "id": 1204761128, "lat": 39.9268474, "lon": -75.1636296, "tags": {"amenity": "bar", "name": "Vikings High School Club"}}, {"type": "node", "id": 1424271155, "lat": 39.9415203, "lon": -75.1490932, "tags": {"addr:housenumber": "344", "addr:postcode": "19147", "addr:street": "South Street", "amenity": "bar", "name": "Copabanana", "opening_hours": "Mo-Su 11:30-02:00", "phone": "+1 215 9236180", "website": "https://copabanana.com/"}}, {"type": "node", "id": 1475230378, "lat": 39.9662701, "lon": -75.1400237, "tags": {"addr:city": "Philadelphia", "addr:housenumber": "1001", "addr:postcode": "19123", "addr:street": "North 2nd Street", "amenity": "bar", "name": "Gunner's Run", "opening_hours": "Mo-Su 11:00-02:00", "phone": "+1 215-923-4600", "website": "http://gunnersrun.com/"}}, {"type": "node", "id": 1475234787, "lat": 39.9368559, "lon": -75.1548054, "tags": {"amenity": "bar", "name": "Royal Tavern"}}, {"type": "node", "id": 1475234971, "lat": 39.9368866, "lon": -75.154784, "tags": {"addr:city": "Philadelphia", "addr:housenumber": "947", "addr:postcode": "19147", "addr:street": "East Passyunk Avenue", "air_conditioning": "yes", "amenity": "bar", "name": "The Dive Bar", "opening_hours": "17:00-02:00", "phone": "+1 215-465-5505", "smoking": "isolated"}}, {"type": "node", "id": 1518109393, "lat": 39.9529963, "lon": -75.1592391, "tags": {"amenity": "bar", "name": "Fieldhouse Philadelphia", "toilets:wheelchair": "yes", "wheelchair": "yes"}}, {"type": "node", "id": 1696268602, "lat": 40.0245358, "lon": -75.2211217, "tags": {"amenity": "bar", "check_date": "2023-07-28", "check_date:opening_hours": "2023-09-26", "name": "Bayou Bar and Grill", "opening_hours:signed": "no"}}, {"type": "node", "id": 1700198702, "lat": 39.9537387, "lon": -75.2028345, "tags": {"addr:city": "Philadelphia", "amenity": "bar", "name": "Smokey Joe's"}}, {"type": "node", "id": 1712067122, "lat": 39.9698591, "lon": -75.1435298, "tags": {"addr:housenumber": "412", "addr:postcode": "19123", "addr:street": "West Girard Ave", "amenity": "bar", "name": "The Fire"}}, {"type": "node", "id": 1712077076, "lat": 40.0057179, "lon": -75.1074442, "tags": {"amenity": "bar"}}, {"type": "node", "id": 1718667835, "lat": 40.068083, "lon": -75.0687339, "tags": {"amenity": "bar", "name": "Red Rooster"}}, {"type": "node", "id": 1749989684, "lat": 39.9279585, "lon": -75.1620353, "tags": {"amenity": "bar", "name": "Watkins Drinkery"}}, {"type": "node", "id": 1980171513, "lat": 39.9417727, "lon": -75.1794507, "tags": {"amenity": "bar", "indoor_seating": "yes", "name": "SideCar Bar", "opening_hours": "Th-Tu 16:00-23:00", "outdoor_seating": "yes", "website": "https://www.thesidecarbar.com/"}}, {"type": "node", "id": 2002997662, "lat": 39.9667589, "lon": -75.1730776}, {"type": "node", "id": 2003090914, "lat": 40.0091806, "lon": -75.1564062, "tags": {"amenity": "bar", "name": "B Bar"}}, {"type": "node", "id": 2177564503, "lat": 39.9483487, "lon": -75.221363, "tags": {"amenity": "bar", "name": "The Bar(n)"}}, {"type": "node", "id": 2182345789, "lat": 39.9570682, "lon": -75.2024993, "tags": {"amenity": "bar", "name": "Flynn's Bar"}}, {"type": "node", "id": 2256040057, "lat": 39.9506774, "lon": -75.1632811, "tags": {"addr:city": "Philadelphia", "addr:housenumber": "1336", "addr:postcode": "19107", "addr:street": "Chestnut Street", "amenity": "bar", "check_date": "2023-10-12", "contact:facebook": "https://www.facebook.com/LuckyStrikePhiladelphia", "contact:instagram": "https://www.instagram.com/luckystrikeph", "leisure": "bowling_alley", "name": "Lucky Strike", "opening_hours": "Mo-Th 16:00-23:00, Fr 14:00-26:00, Sa 12:00-26:00, Su 12:00-23:00", "phone": "+1 215-545-2471", "sport": "10pin", "website": "https://www.luckystrikeent.com/location/lucky-strike-philadelphia"}}, {"type": "node", "id": 2419063592, "lat": 39.9477622, "lon": -75.2228257, "tags": {"addr:city": "Philadelphia", "addr:housenumber": "701", "addr:postcode": "19143", "addr:street": "South 50th Street", "amenity": "bar", "cuisine": "pizza", "diet:vegan": "yes", "diet:vegetarian": "yes", "food": "pizza", "name": "Dock Street Brewing Company", "outdoor_seating": "yes", "website": "https://www.dockstreetbeer.com/"}}, {"type": "node", "id": 2613465619, "lat": 39.9628076, "lon": -75.1399534, "tags": {"addr:city": "Philadelphia", "addr:housenumber": "149", "addr:postcode": "19123", "addr:street": "Brown Street", "amenity": "bar", "name": "The Druid's Keep", "phone": "+1 215-413-0455"}}, {"type": "node", "id": 2613831410, "lat": 39.9645985, "lon": -75.1425425}, {"type": "node", "id": 2613831462, "lat": 39.9620596, "lon": -75.1409421, "tags": {"addr:city": "Philadelphia", "addr:housenumber": "705", "addr:postcode": "19123", "addr:street": "North 2nd Street", "amenity": "bar", "name": "Bourbon & Branch", "opening_hours": "Sa-Su 10:00-02:00; Mo-Fr 11:00-02:00", "phone": "+1 215-238-0660", "website": "https://bourbonandbranchphilly.com/"}}, {"type": "node", "id": 2613854617, "lat": 39.9610231, "lon": -75.1432118, "tags": {"addr:city": "Philadelphia", "addr:housenumber": "537", "addr:postcode": "19123", "addr:street": "North 3rd Street", "amenity": "bar", "name": "Finnigan's Wake", "phone": "+1 215-574-9317", "website": "https://www.finnigans.com/", "wheelchair": "yes"}}, {"type": "node", "id": 2699327332, "lat": 39.9277687, "lon": -75.1769902}, {"type": "node", "id": 2699346739, "lat": 39.9644678, "lon": -75.1403339, "tags": {"addr:city": "Philadelphia", "addr:housenumber": "909", "addr:postcode": "19123", "addr:street": "North 2nd Street", "amenity": "bar", "leisure": "bowling_alley", "name": "North Bowl", "phone": "+1 215-238-2695", "sport": "10pin", "website": "https://www.northbowlphilly.com/"}}, {"type": "node", "id": 2701472360, "lat": 39.9439702, "lon": -75.1674777, "tags": {"addr:city": "Philadelphia", "addr:housenumber": "1509", "addr:postcode": "19146", "addr:street": "South Street", "amenity": "bar", "check_date": "2023-10-15", "contact:instagram": "https://www.instagram.com/bobandbarbs", "name": "Bob and Barbara's", "opening_hours": "Mo,We-Su 16:00-26:00; Tu off", "phone": "+1 215-545-4511", "website": "https://www.bobandbarbaras.com/", "wheelchair": "yes"}}, {"type": "node", "id": 2749790457, "lat": 39.9273144, "lon": -75.1714185}, {"type": "node", "id": 2749790461, "lat": 39.9273406, "lon": -75.1714131}, {"type": "node", "id": 2749790464, "lat": 39.9271867, "lon": -75.1714475}, {"type": "node", "id": 2758582549, "lat": 39.9216197, "lon": -75.1785713}, {"type": "node", "id": 2758582551, "lat": 39.9216341, "lon": -75.1787546}, {"type": "node", "id": 2758582553, "lat": 39.9216327, "lon": -75.178742}, {"type": "node", "id": 2822025477, "lat": 39.9488398, "lon": -75.1622899, "tags": {"addr:city": "Philadelphia", "addr:housenumber": "202", "addr:postcode": "19107", "addr:street": "South 13th Street", "amenity": "bar", "check_date": "2023-10-12", "lgbtq": "primary", "name": "Woody's Bar", "website": "https://woodysbar.com"}}, {"type": "node", "id": 2822026031, "lat": 39.9358102, "lon": -75.1619902, "tags": {"amenity": "bar", "name": "Devil's Den"}}, {"type": "node", "id": 2848698991, "lat": 39.9362004, "lon": -75.1618874}, {"type": "node", "id": 2876251699, "lat": 39.9390528, "lon": -75.1576839, "tags": {"addr:city": "Philadelphia", "addr:housenumber": "831", "addr:postcode": "19147", "addr:street": "Christian Street", "amenity": "bar", "name": "12 Steps Down", "opening_hours": "11:00-02:00", "phone": "+1 215 238 0379", "smoking": "yes", "website": "http://www.12stepsdown.com"}}, {"type": "node", "id": 2931994044, "lat": 39.9359905, "lon": -75.1722224, "tags": {"addr:city": "Philadelphia", "addr:housenumber": "1216", "addr:postcode": "19146", "addr:street": "South 17th Street", "amenity": "bar", "name": "Se\u00f1or Baynard's Bar & Grill", "phone": "+1 215-462-1888", "smoking": "yes"}}, {"type": "node", "id": 2960031733, "lat": 39.877599, "lon": -75.239728, "tags": {"amenity": "bar", "brand": "Vino Volo", "brand:wikidata": "Q7932710", "indoor_seating": "yes", "name": "Vino Volo", "outdoor_seating": "no"}}, {"type": "node", "id": 3042654511, "lat": 39.9495483, "lon": -75.145966, "tags": {"addr:city": "Philadelphia", "addr:housenumber": "22", "addr:postcode": "19106", "addr:street": "South 3rd Street", "amenity": "bar", "check_date": "2023-10-16", "name": "National Mechanics", "opening_hours": "Mo-Tu 12:00-22:00, We-Fr 12:00-26:00, Sa 10:00-26:00, Su 10:00-22:00", "phone": "+1-215-701-4883", "smoking": "outside", "website": "https://www.nationalmechanics.com/", "wheelchair": "no", "wheelchair:description": "Their website says ramp at side wheelchair accessible but it's difficult to get attention of any staff from outside and there is trash/rubble on a very steep ramp."}}, {"type": "node", "id": 3413417149, "lat": 39.9488304, "lon": -75.1664238}, {"type": "node", "id": 3413742084, "lat": 39.9361462, "lon": -75.1618829}, {"type": "node", "id": 3413742085, "lat": 39.9362324, "lon": -75.1625149}, {"type": "node", "id": 3417195707, "lat": 39.94853, "lon": -75.1664874}, {"type": "node", "id": 3417195708, "lat": 39.948557, "lon": -75.1667048}, {"type": "node", "id": 3460931547, "lat": 39.9412945, "lon": -75.1524196}, {"type": "node", "id": 3496961798, "lat": 39.9295012, "lon": -75.1614403, "tags": {"amenity": "bar", "name": "The Fountain Porter"}}, {"type": "node", "id": 3527163511, "lat": 39.9506137, "lon": -75.1627406, "tags": {"addr:city": "Philadelphia", "addr:housenumber": "1322", "addr:postcode": "19107", "addr:street": "Chestnut Street", "amenity": "bar", "check_date": "2023-10-12", "contact:instagram": "https://www.instagram.com/tradesmansphl", "name": "Tradesman's", "opening_hours": "Mo-Th 16:00-23:00, Fr 16:00-26:00, Sa 11:00-26:00, Su 11:00-23:00", "opening_hours:kitchen": "Mo-Th 16:00-23:00; Fr 16:00-22:00; Sa-Su 11:00-22:00", "phone": "+1 267-457-3994", "website": "https://www.craftconceptsgroup.com/tradesmans"}}, {"type": "node", "id": 3527163512, "lat": 39.9505942, "lon": -75.1625219, "tags": {"addr:city": "Philadelphia", "addr:housenumber": "1318", "addr:street": "Chestnut Street", "amenity": "bar", "check_date": "2023-10-12", "contact:instagram": "https://www.instagram.com/bruphilly", "name": "Br\u00fc Craft & Wurst", "opening_hours": "11:00-26:00", "phone": "+1 215-800-1079", "website": "https://mail.bruphilly.com/index.html"}}, {"type": "node", "id": 3531082350, "lat": 39.9488574, "lon": -75.1666412}, {"type": "node", "id": 3531082351, "lat": 39.9487981, "lon": -75.1666538}, {"type": "node", "id": 3567104221, "lat": 39.9520229, "lon": -75.1785874}, {"type": "node", "id": 3567104222, "lat": 39.9519678, "lon": -75.1786006}, {"type": "node", "id": 3567104223, "lat": 39.951942, "lon": -75.1784024}, {"type": "node", "id": 3567104224, "lat": 39.9519976, "lon": -75.1783911}, {"type": "node", "id": 3753508296, "lat": 39.8754946, "lon": -75.2381694, "tags": {"amenity": "bar", "name": "Jet Rock Bar & Grill"}}, {"type": "node", "id": 3773468429, "lat": 39.9670625, "lon": -75.1655229}, {"type": "node", "id": 3773468430, "lat": 39.967062, "lon": -75.1654625}, {"type": "node", "id": 3773468431, "lat": 39.9668126, "lon": -75.165506}, {"type": "node", "id": 3773468432, "lat": 39.9668142, "lon": -75.1655193}, {"type": "node", "id": 3885206651, "lat": 39.933503, "lon": -75.1589804}, {"type": "node", "id": 3892460932, "lat": 39.950609, "lon": -75.1625931, "tags": {"addr:city": "Philadelphia", "addr:housenumber": "1320", "addr:postcode": "19107", "addr:street": "Chestnut Street", "amenity": "bar", "check_date": "2023-10-12", "contact:instagram": "https://www.instagram.com/ubahnphilly", "name": "U-Bahn", "opening_hours": "Fr-Sa 22:00-26:00", "phone": "+1 215-800-1079", "website": "https://www.ubahnphilly.com"}}, {"type": "node", "id": 3903303647, "lat": 40.0092431, "lon": -75.1938361, "tags": {"addr:city": "Philadelphia", "addr:housenumber": "3749", "addr:postcode": "19129", "addr:state": "PA", "addr:street": "Midvale Avenue", "amenity": "bar", "check_date": "2024-02-10", "name": "Black Squirrel"}}, {"type": "node", "id": 3944585958, "lat": 39.9115895, "lon": -75.1747709, "tags": {"addr:city": "Philadelphia", "addr:housenumber": "1526", "addr:postcode": "19145", "addr:state": "PA", "addr:street": "Packer Avenue", "amenity": "bar", "branch": "South Philadelphia", "brand": "Chickie's and Pete's", "check_date": "2024-05-14", "cuisine": "american", "name": "Chickie's and Pete's", "opening_hours": "Mo-Th,Su 11:00-24:00, Fr-Sa 11:00-26:00", "opening_hours:kitchen": "Mo-Th,Su 11:00-23:00; Fr-Sa 11:00-25:00", "phone": "+1 215-218-0500", "website": "https://chickiesandpetes.com/"}}, {"type": "node", "id": 3944590539, "lat": 39.9125123, "lon": -75.1763937, "tags": {"addr:city": "Philadelphia", "addr:housenumber": "1631", "addr:postcode": "19145", "addr:state": "PA", "addr:street": "Packer Avenue", "amenity": "bar", "check_date": "2024-05-14", "contact:facebook": "https://www.facebook.com/Philadium", "contact:instagram": "https://www.instagram.com/philadium", "name": "Philadium Tavern", "opening_hours": "Mo-Th 11:00-24:00, Fr-Sa 11:00-26:00, Su 10:00-24:00", "phone": "+1 215-271-2337", "website": "https://philadium.com/"}}, {"type": "node", "id": 4043212398, "lat": 39.9718529, "lon": -75.135603}, {"type": "node", "id": 4043212399, "lat": 39.9718199, "lon": -75.1354233}, {"type": "node", "id": 4175104198, "lat": 39.9284829, "lon": -75.1651095, "tags": {"addr:housenumber": "1200", "addr:street": "East Passyunk Avenue", "amenity": "bar"}}, {"type": "node", "id": 4175142992, "lat": 39.9506905, "lon": -75.166966, "tags": {"addr:housenumber": "1524", "addr:street": "Sansom Street", "amenity": "bar", "name": "Oscar's Dive Bar"}}, {"type": "node", "id": 4175144191, "lat": 39.9454134, "lon": -75.1627756, "tags": {"addr:street": "Pine Street", "amenity": "bar", "name": "Dirty Franks"}}, {"type": "node", "id": 4267167928, "lat": 39.9341118, "lon": -75.1584926, "tags": {"amenity": "bar", "fixme": "\"2am close\" -- need opening times as well in opening_hours for the tag to be useful.", "name": "Ray's Happy Birthday Bar", "opening_hours": "unknown", "smoking": "yes"}}, {"type": "node", "id": 4279223855, "lat": 39.929857, "lon": -75.1597727}, {"type": "node", "id": 4279223856, "lat": 39.9298939, "lon": -75.1597808}, {"type": "node", "id": 4366251786, "lat": 39.927188, "lon": -75.1715121}, {"type": "node", "id": 4366346430, "lat": 39.9323538, "lon": -75.1610209}, {"type": "node", "id": 4366346431, "lat": 39.9323558, "lon": -75.1610343}, {"type": "node", "id": 4366346432, "lat": 39.9323606, "lon": -75.1612436}, {"type": "node", "id": 4366346433, "lat": 39.932382, "lon": -75.1612371}, {"type": "node", "id": 4366346434, "lat": 39.9323581, "lon": -75.1610782}, {"type": "node", "id": 4366622416, "lat": 39.9312273, "lon": -75.1655882}, {"type": "node", "id": 4366622417, "lat": 39.9312712, "lon": -75.1658245}, {"type": "node", "id": 4366622423, "lat": 39.9307795, "lon": -75.1620862}, {"type": "node", "id": 4366622424, "lat": 39.9307714, "lon": -75.1620881}, {"type": "node", "id": 4379394799, "lat": 39.9308512, "lon": -75.171807, "tags": {"amenity": "bar", "name": "Emily's"}}, {"type": "node", "id": 4526388318, "lat": 39.9367849, "lon": -75.1663677}, {"type": "node", "id": 4526388320, "lat": 39.9368429, "lon": -75.1663553}, {"type": "node", "id": 4533973396, "lat": 39.9312338, "lon": -75.1656371}, {"type": "node", "id": 4562004000, "lat": 39.924066, "lon": -75.1789685}, {"type": "node", "id": 4562004002, "lat": 39.9240414, "lon": -75.1789608}, {"type": "node", "id": 4779956683, "lat": 39.9481789, "lon": -75.1430737, "tags": {"addr:city": "Philadelphia", "addr:housenumber": "112", "addr:postcode": "19106", "addr:state": "PA", "addr:street": "Chestnut Street", "amenity": "bar", "check_date": "2023-10-17", "contact:instagram": "https://www.instagram.com/brasils_night_club_", "description": "On second floor of building.  Holds dance classes some nights, and functions as a nightclub on weekends.", "name": "Brasil's Nightclub", "outdoor_seating": "no", "phone": "+1 609-713-6944", "smoking": "no", "website": "https://brasilsnightclub-philly.com"}}, {"type": "node", "id": 4792129563, "lat": 39.9277754, "lon": -75.1769886}, {"type": "node", "id": 4792129564, "lat": 39.9277628, "lon": -75.1769636}, {"type": "node", "id": 4792129565, "lat": 39.9277486, "lon": -75.1768547}, {"type": "node", "id": 4792129566, "lat": 39.9277785, "lon": -75.1770652}, {"type": "node", "id": 4803936642, "lat": 39.9298779, "lon": -75.1597843}, {"type": "node", "id": 4803936643, "lat": 39.9298302, "lon": -75.1595529}, {"type": "node", "id": 4806012532, "lat": 39.9334423, "lon": -75.1585395}, {"type": "node", "id": 4806012533, "lat": 39.9333947, "lon": -75.1585563}, {"type": "node", "id": 4949327723, "lat": 39.9476934, "lon": -75.1680792, "tags": {"addr:housenumber": "264", "addr:postcode": "19102", "addr:street": "South 16th Street", "amenity": "bar", "name": "Monk's Cafe", "name:en": "Monk's Cafe", "name:es": "Monk's Cafe", "opening_hours": "Mo-Su 11:30-02:00", "phone": "+1-215-545-7005", "website": "https://monkscafe.com/"}}, {"type": "node", "id": 5071801195, "lat": 39.9803326, "lon": -75.1230964, "tags": {"addr:city": "Philadelphia", "addr:housenumber": "2331", "addr:postcode": "19125", "addr:state": "PA", "addr:street": "East Cumberland Street", "amenity": "bar", "name": "Meetinghouse", "outdoor_seating": "yes"}}, {"type": "node", "id": 5258029217, "lat": 39.9660968, "lon": -75.1393076, "tags": {"addr:city": "Philadelphia", "addr:housenumber": "1050", "addr:postcode": "19123", "addr:state": "PA", "addr:street": "North Hancock Street", "addr:unit": "#1", "amenity": "bar", "name": "Crabby Cafe & Sports Bar", "opening_hours": "Su-Th 11:00-02:00; Fr-Sa 11:00-00:00", "outdoor_seating": "yes"}}, {"type": "node", "id": 5286851195, "lat": 40.1042675, "lon": -75.0006009}, {"type": "node", "id": 5286851196, "lat": 40.1043295, "lon": -75.0006783}, {"type": "node", "id": 5286851197, "lat": 40.1044311, "lon": -75.0005332}, {"type": "node", "id": 5286851198, "lat": 40.1043716, "lon": -75.0004523}, {"type": "node", "id": 5286851199, "lat": 40.1045336, "lon": -75.0003868}, {"type": "node", "id": 5286851200, "lat": 40.104471, "lon": -75.0003103}, {"type": "node", "id": 5366495321, "lat": 39.9480826, "lon": -75.1592322, "tags": {"addr:housenumber": "216", "addr:street": "South 11th Street", "amenity": "bar", "check_date": "2023-04-12", "contact:facebook": "https://www.facebook.com/Strangelovesbeerbar", "contact:phone": "+1 215-873-0404", "contact:website": "https://www.strangelovesbeerbar.com", "name": "Strangelove's", "opening_hours": "Mo-We 11:00-22:00; Th-Fr 11:00-24:00; Sa 10:30-23:00; Su 10:30-20:00"}}, {"type": "node", "id": 5413260221, "lat": 39.9412051, "lon": -75.1524413}, {"type": "node", "id": 5470214362, "lat": 40.0770458, "lon": -75.0842034}, {"type": "node", "id": 5470214363, "lat": 40.0770649, "lon": -75.0841959}, {"type": "node", "id": 5470214364, "lat": 40.0771278, "lon": -75.0841279}, {"type": "node", "id": 5470214365, "lat": 40.077112, "lon": -75.0840585}, {"type": "node", "id": 5470214366, "lat": 40.0771438, "lon": -75.0840461}, {"type": "node", "id": 5470214367, "lat": 40.0771143, "lon": -75.0839165}, {"type": "node", "id": 5470214368, "lat": 40.0769914, "lon": -75.0839643}, {"type": "node", "id": 5509435682, "lat": 40.0582228, "lon": -75.0869543, "tags": {"amenity": "bar", "name": "The New Princeton Tavern"}}, {"type": "node", "id": 5589337625, "lat": 39.9715992, "lon": -75.1273228}, {"type": "node", "id": 5589337626, "lat": 39.9715807, "lon": -75.1273779}, {"type": "node", "id": 5589337627, "lat": 39.9715665, "lon": -75.1273698}, {"type": "node", "id": 5589337628, "lat": 39.9715619, "lon": -75.1273835}, {"type": "node", "id": 5589337629, "lat": 39.9715392, "lon": -75.1273705}, {"type": "node", "id": 5589337630, "lat": 39.9714829, "lon": -75.1272515}, {"type": "node", "id": 5649173009, "lat": 40.057879, "lon": -75.0779838, "tags": {"amenity": "bar", "name": "Smegy's Pub"}}, {"type": "node", "id": 5714395576, "lat": 39.9985339, "lon": -75.1409163}, {"type": "node", "id": 5715419415, "lat": 39.9950027, "lon": -75.1386836}, {"type": "node", "id": 5716245442, "lat": 39.9962005, "lon": -75.1362293, "tags": {"addr:city": "Philadelphia", "addr:housenumber": "2965", "addr:postcode": "19133", "addr:state": "PA", "addr:street": "North 3rd Street", "amenity": "bar", "name": "Camuy's Bar"}}, {"type": "node", "id": 5716279473, "lat": 39.992924, "lon": -75.1346654}, {"type": "node", "id": 5718812911, "lat": 39.9923492, "lon": -75.1304853}, {"type": "node", "id": 5718820401, "lat": 39.9953888, "lon": -75.1298448}, {"type": "node", "id": 5718906468, "lat": 39.9975716, "lon": -75.1296283, "tags": {"addr:city": "Philadelphia", "addr:housenumber": "3124", "addr:postcode": "19133", "addr:state": "PA", "addr:street": "North Front Street", "amenity": "bar", "name": "Mostaza Sports Bar & Grill"}}, {"type": "node", "id": 5721511130, "lat": 39.9943873, "lon": -75.121033}, {"type": "node", "id": 5861898622, "lat": 39.9463276, "lon": -75.1635376, "tags": {"addr:housenumber": "1342", "addr:street": "Cypress Street", "amenity": "bar", "name": "Writer's Block Rehab"}}, {"type": "node", "id": 5930024328, "lat": 40.0726186, "lon": -75.0767577}, {"type": "node", "id": 5930024329, "lat": 40.0724728, "lon": -75.0765171}, {"type": "node", "id": 5930024330, "lat": 40.0725175, "lon": -75.0764708}, {"type": "node", "id": 5930024331, "lat": 40.0726633, "lon": -75.0767114}, {"type": "node", "id": 5967871734, "lat": 39.873825, "lon": -75.2438679, "tags": {"amenity": "bar", "name": "Baba Bar"}}, {"type": "node", "id": 6222237222, "lat": 39.9477524, "lon": -75.1615347, "tags": {"addr:city": "Philadelphia", "addr:housenumber": "1220", "addr:postcode": "19107", "addr:state": "PA", "addr:street": "Locust Street", "amenity": "bar", "check_date:opening_hours": "2021-04-02", "name": "Ubar", "opening_hours": "Mo-Su 11:00-02:00", "outdoor_seating": "no", "website": "https://www.ubarphilly.com/", "wheelchair": "no"}}, {"type": "node", "id": 6327451791, "lat": 39.9513876, "lon": -75.1705328, "tags": {"addr:housenumber": "108", "addr:street": "South 18th Street", "amenity": "bar", "check_date": "2023-04-11", "contact:facebook": "https://www.facebook.com/cleaversphilly", "contact:phone": "+1 215-515-3828", "contact:website": "https://www.cleaversphilly.com", "name": "Cleavers", "opening_hours": "Mo-We,Su 11:00-21:00; Th-Sa 11:00-22:00"}}, {"type": "node", "id": 6556392900, "lat": 39.9538831, "lon": -75.1574417, "tags": {"addr:housenumber": "1025", "addr:street": "Arch Street", "amenity": "bar", "check_date": "2023-04-12", "contact:phone": "+1 215-592-8128", "contact:website": "https://lairktv.com", "description": "Karaoke bar with luxury private rooms for rent.  The lower level is open Friday and Saturday; the upper rooms are available every day.  By reservation only.", "email": "lairktv@gmail.com", "name": "KTV", "opening_hours": "19:00-26:00"}}, {"type": "node", "id": 6556392908, "lat": 39.9538547, "lon": -75.157219, "tags": {"amenity": "bar", "name": "Tango"}}, {"type": "node", "id": 6558075399, "lat": 39.9493345, "lon": -75.1526809, "tags": {"amenity": "bar", "name": "Las Vegas Lounge"}}, {"type": "node", "id": 6575257174, "lat": 39.9483634, "lon": -75.2173008, "tags": {"amenity": "bar", "name": "Dahlak"}}, {"type": "node", "id": 6597387162, "lat": 39.9476975, "lon": -75.1665331, "tags": {"addr:city": "Philadelphia", "addr:housenumber": "258", "addr:postcode": "19102", "addr:state": "PA", "addr:street": "South 15th Street", "amenity": "bar", "check_date": "2023-04-11", "contact:phone": "+1 267-519-2189", "contact:website": "https://www.howlatthemoon.com/philadelphia", "description": "The Philadelphia branch of the Howl at the Moon franchise.", "name": "Howl at the Moon", "opening_hours": "Mo-We,Su \"open for events\"; Th 19:00-26:00; Fr-Sa 18:00-26:00", "toilets:wheelchair": "yes", "wheelchair": "yes"}}, {"type": "node", "id": 6625360703, "lat": 39.9468964, "lon": -75.1441362, "tags": {"addr:city": "Philadelphia", "addr:housenumber": "125", "addr:postcode": "19106", "addr:state": "PA", "addr:street": "Walnut Street", "amenity": "bar", "check_date": "2023-04-12", "contact:phone": "+1 215-253-3777", "contact:website": "https://www.theoldebar.com", "name": "The Olde Bar", "opening_hours": "Mo-Fr 16:00-22:00; Sa-Su 12:00-15:00,16:00-22:00"}}, {"type": "node", "id": 6634093937, "lat": 39.962125, "lon": -75.1534533, "tags": {"addr:city": "Philadelphia", "addr:housenumber": "915", "addr:postcode": "19123", "addr:street": "Spring Garden Street", "amenity": "bar", "check_date": "2023-10-11", "contact:instagram": "https://www.instagram.com/triplebottombrewing", "craft": "brewery", "email": "hello@triplebottombrewing.com", "name": "Triple Bottom Brewing", "opening_hours": "Mo-Tu off; We-Fr 15:00-22:00; Sa 12:00-22:00; Su 12:00-19:00", "website": "https://triplebottombrewing.com"}}, {"type": "node", "id": 6669293565, "lat": 39.9383368, "lon": -75.1900707, "tags": {"amenity": "bar", "craft": "brewery", "name": "Point Breeze Brewing"}}, {"type": "node", "id": 6876115463, "lat": 39.9129958, "lon": -75.243858, "tags": {"addr:city": "Philadelphia", "addr:housenumber": "7365", "addr:street": "Elmwood Avenue", "amenity": "bar", "name": "Rose's Tavern"}}, {"type": "node", "id": 6876115464, "lat": 39.9110312, "lon": -75.2432988, "tags": {"addr:city": "Philadelphia", "addr:housenumber": "7417", "addr:state": "PA", "addr:street": "Buist Avenue", "amenity": "bar", "contact:facebook": "https://www.facebook.com/100066339859622", "name": "Shotz Bar & Grill", "outdoor_seating": "no", "phone": "+1 215-309-1748"}}, {"type": "node", "id": 6884017091, "lat": 39.913576, "lon": -75.2361898, "tags": {"addr:city": "Philadelphia", "addr:housenumber": "7100", "addr:postcode": "19153", "addr:state": "PA", "addr:street": "Dicks Avenue", "amenity": "bar", "name": "A&K Beer Store"}}, {"type": "node", "id": 6886196285, "lat": 39.912439, "lon": -75.2428749, "tags": {"addr:city": "Philadelphia", "addr:housenumber": "2515", "addr:postcode": "19153", "addr:state": "PA", "addr:street": "Island Avenue", "amenity": "bar", "name": "Bottom's Up 215"}}, {"type": "node", "id": 6887218406, "lat": 39.9243932, "lon": -75.2385365, "tags": {"amenity": "bar", "name": "The Hut"}}, {"type": "node", "id": 6887221220, "lat": 39.9268372, "lon": -75.2355851, "tags": {"amenity": "bar", "name": "Ford's Sports Bar"}}, {"type": "node", "id": 6887400138, "lat": 39.9243723, "lon": -75.2331053, "tags": {"amenity": "bar", "name": "Lucky Beer Deli"}}, {"type": "node", "id": 6887496461, "lat": 39.9279196, "lon": -75.2307342, "tags": {"amenity": "bar", "name": "Lounge 62"}}, {"type": "node", "id": 6897200045, "lat": 39.9318539, "lon": -75.2295993, "tags": {"amenity": "bar", "name": "Upland Beer & Deli"}}, {"type": "node", "id": 6897200051, "lat": 39.9336149, "lon": -75.2312898, "tags": {"amenity": "bar", "name": "60th St Pizza & Beer"}}, {"type": "node", "id": 7098149781, "lat": 39.9695431, "lon": -75.1318217, "tags": {"amenity": "bar", "heritage": "yes", "name": "Green Tree Tavern", "wikidata": "Q5603342", "wikipedia": "en:Green Tree Tavern"}}, {"type": "node", "id": 7131484401, "lat": 40.0692984, "lon": -75.2402442, "tags": {"addr:city": "Philadelphia", "addr:housenumber": "8919", "addr:postcode": "19128", "addr:state": "PA", "addr:street": "Ridge Avenue", "addr:unit": "1", "amenity": "bar", "brewery": "yes", "check_date": "2023-11-17", "min_age": "21", "name": "Graham's Pub"}}, {"type": "node", "id": 7307810558, "lat": 40.0422868, "lon": -75.2263016}, {"type": "node", "id": 7307810559, "lat": 40.0422453, "lon": -75.2262436}, {"type": "node", "id": 7307810560, "lat": 40.0421841, "lon": -75.2263185}, {"type": "node", "id": 7307810561, "lat": 40.0421517, "lon": -75.2264669}, {"type": "node", "id": 7383406631, "lat": 39.9824766, "lon": -75.1271385}, {"type": "node", "id": 7383406636, "lat": 39.9823429, "lon": -75.1269397}, {"type": "node", "id": 7383406638, "lat": 39.9823703, "lon": -75.1269083}, {"type": "node", "id": 7383406643, "lat": 39.9825964, "lon": -75.1270872}, {"type": "node", "id": 7383406647, "lat": 39.9825485, "lon": -75.1271832}, {"type": "node", "id": 7383406648, "lat": 39.9825123, "lon": -75.1267736, "tags": {"amenity": "bar", "name": "The Lost Bar"}}, {"type": "node", "id": 7383480662, "lat": 39.9762831, "lon": -75.1371413, "tags": {"addr:city": "Philadelphia", "addr:housenumber": "1700", "addr:postcode": "19122", "addr:state": "PA", "addr:street": "North Hancock Street", "amenity": "bar", "description": "Free tours on Wednesday and Thursday at 7pm", "name": "Stateside Urbancraft Vodka Tasting Room", "opening_hours": "Tu-Th 17:00-22:00, Fr 17:00-24:00, Sa 12:00-24:00", "opening_hours:bottle_shop": "Mo-Fr 09:00-17:00", "operator": "Federal Distilling Room"}}, {"type": "node", "id": 7383491138, "lat": 39.9757647, "lon": -75.1340044, "tags": {"amenity": "bar", "craft": "brewery", "name": "Evil Genius Beer Company"}}, {"type": "node", "id": 7383526243, "lat": 39.9745786, "lon": -75.1400343, "tags": {"alt_name": "Original 13 Ciderworks", "amenity": "bar", "craft": "brewery", "name": "Original XIII Ciderworks"}}, {"type": "node", "id": 7383526245, "lat": 39.9736549, "lon": -75.1397393, "tags": {"amenity": "bar", "craft": "brewery", "name": "Punch Buggy Brewing Company"}}, {"type": "node", "id": 7383531794, "lat": 39.9624458, "lon": -75.1357955, "tags": {"amenity": "bar", "craft": "brewery", "name": "Mainstay Independent Brewing Company"}}, {"type": "node", "id": 7383548287, "lat": 39.9656362, "lon": -75.1353856, "tags": {"amenity": "bar", "craft": "distillery", "name": "Philadelphia Distilling"}}, {"type": "node", "id": 7383548302, "lat": 39.9655211, "lon": -75.1349698, "tags": {"amenity": "bar", "name": "Ajax Hall"}}, {"type": "node", "id": 7383548306, "lat": 39.9649456, "lon": -75.1356963, "tags": {"amenity": "bar", "name": "Goose Island Brewhouse"}}, {"type": "node", "id": 7402711440, "lat": 39.9602964, "lon": -75.1555496, "tags": {"amenity": "bar", "craft": "brewery", "name": "Love City Brewing"}}, {"type": "node", "id": 7433918009, "lat": 39.9411822, "lon": -75.1522466}, {"type": "node", "id": 7433918010, "lat": 39.9412697, "lon": -75.1522281}, {"type": "node", "id": 7515828914, "lat": 40.0230366, "lon": -75.1617102, "tags": {"amenity": "bar", "craft": "brewery", "name": "Attic Brewing Company"}}, {"type": "node", "id": 7515874059, "lat": 39.9928387, "lon": -75.1085964, "tags": {"amenity": "bar", "craft": "brewery", "name": "Sacred Vice Brewing Company"}}, {"type": "node", "id": 7519175761, "lat": 39.9240683, "lon": -75.1788436}, {"type": "node", "id": 7519200864, "lat": 40.0252438, "lon": -75.222801, "tags": {"amenity": "bar", "check_date": "2023-07-28", "check_date:opening_hours": "2023-09-26", "name": "Fat Lady Brewing", "opening_hours:signed": "no"}}, {"type": "node", "id": 7519214205, "lat": 40.0741594, "lon": -75.2026934, "tags": {"amenity": "bar", "craft": "brewery", "name": "Chestnut Hill Brewing Company"}}, {"type": "node", "id": 7524084336, "lat": 40.0136822, "lon": -75.2008481, "tags": {"amenity": "bar", "craft": "brewery", "name": "Wissahickon Brewing Company"}}, {"type": "node", "id": 7613664316, "lat": 39.915237, "lon": -75.1757793, "tags": {"addr:city": "Philadelphia", "addr:housenumber": "2831", "addr:postcode": "19145", "addr:state": "PA", "addr:street": "South 17th Street", "amenity": "bar", "name": "Bender City"}}, {"type": "node", "id": 8116472552, "lat": 39.9784621, "lon": -75.1304159, "tags": {"amenity": "bar", "name": "Nut Hut Saloon", "website": "https://www.facebook.com/thenuthutsaloon/"}}, {"type": "node", "id": 8410340130, "lat": 39.9500338, "lon": -75.1732073, "tags": {"addr:city": "Philadelphia", "addr:housenumber": "210", "addr:postcode": "19103", "addr:street": "West Rittenhouse Square", "amenity": "bar", "check_date": "2023-10-14", "description": "inside Lacroix", "name": "Bar210", "opening_hours": "Mo-Tu off; We-Th 17:00-21:00; Fr-Sa 14:00-21:30; Su 14:00-21:00", "phone": "+1 215-546-9000", "website": "https://www.rittenhousehotel.com/dining/bar210"}}, {"type": "node", "id": 8410340131, "lat": 39.9499956, "lon": -75.1730503, "tags": {"addr:housenumber": "210", "addr:street": "West Rittenhouse Square", "amenity": "bar", "check_date": "2023-10-15", "contact:website": "https://www.rittenhousehotel.com/dining/librarybar", "name": "The Library Bar", "opening_hours": "Mo-Th,Su 17:00-23:00; Fr-Sa 17:00-24:30", "phone": "+1 215-546-9000"}}, {"type": "node", "id": 8439601863, "lat": 39.9692397, "lon": -75.1345606, "tags": {"addr:city": "Philadelphia", "addr:housenumber": "1206", "addr:postcode": "19125", "addr:state": "PA", "addr:street": "Frankford Avenue", "amenity": "bar", "min_age": "21", "name": "R&D Cocktail Bar"}}, {"type": "node", "id": 8441665847, "lat": 39.968663, "lon": -75.1343212}, {"type": "node", "id": 8441665848, "lat": 39.9685274, "lon": -75.1343212}, {"type": "node", "id": 8441665849, "lat": 39.9685294, "lon": -75.1341117}, {"type": "node", "id": 8441665850, "lat": 39.9685813, "lon": -75.1341413}, {"type": "node", "id": 8441665893, "lat": 39.968857, "lon": -75.133332}, {"type": "node", "id": 8441665895, "lat": 39.9689058, "lon": -75.1333608}, {"type": "node", "id": 8591425502, "lat": 39.9522461, "lon": -75.1682872, "tags": {"amenity": "bar", "name": "Blue Bird Distilling - Center City Tasting Room", "website": "https://bluebirddistilling.com/center-city/"}}, {"type": "node", "id": 8943089059, "lat": 39.9644885, "lon": -75.1421301}, {"type": "node", "id": 8943089060, "lat": 39.9644484, "lon": -75.1421408}, {"type": "node", "id": 8943089061, "lat": 39.9645417, "lon": -75.1425562}, {"type": "node", "id": 9247339141, "lat": 39.9254197, "lon": -75.159874, "tags": {"addr:housenumber": "800", "addr:street": "Mifflin Street", "amenity": "bar", "name": "Bok Bar"}}, {"type": "node", "id": 9423180750, "lat": 39.966001, "lon": -75.1381233, "tags": {"amenity": "bar", "name": "The Garden at Monarch"}}, {"type": "node", "id": 9461228249, "lat": 39.9444608, "lon": -75.1411184}, {"type": "node", "id": 9461228250, "lat": 39.9444401, "lon": -75.1411221}, {"type": "node", "id": 9461228251, "lat": 39.9444316, "lon": -75.1410571}, {"type": "node", "id": 9461228252, "lat": 39.9444515, "lon": -75.1410515}, {"type": "node", "id": 9718956004, "lat": 40.052696, "lon": -75.0649777, "tags": {"addr:city": "Philadelphia", "addr:housenumber": "7312-16", "addr:state": "PA", "addr:street": "Castor Avenue", "amenity": "bar", "contact:facebook": "https://www.facebook.com/people/Dimension-sports-bar/100063491770951/", "name": "Dimension Sports Bar", "phone": "+1 267-538-2077"}}, {"type": "node", "id": 10068995181, "lat": 39.9588437, "lon": -75.1566683}, {"type": "node", "id": 10068995182, "lat": 39.9588026, "lon": -75.1563337}, {"type": "node", "id": 10068995183, "lat": 39.9587487, "lon": -75.1563449}, {"type": "node", "id": 10068995184, "lat": 39.9587571, "lon": -75.1564133}, {"type": "node", "id": 10068995185, "lat": 39.9586644, "lon": -75.1564327}, {"type": "node", "id": 10068995186, "lat": 39.9586971, "lon": -75.1566989}, {"type": "node", "id": 10132124523, "lat": 39.9687528, "lon": -75.1361633}, {"type": "node", "id": 10300980672, "lat": 39.9520112, "lon": -75.178497}, {"type": "node", "id": 10542176918, "lat": 39.9563015, "lon": -75.1944241, "tags": {"addr:city": "Philadelphia", "addr:housenumber": "3601", "addr:postcode": "19104", "addr:state": "PA", "addr:street": "Market Street", "amenity": "bar", "name": "Pace & Blossom"}}, {"type": "node", "id": 10573876853, "lat": 39.9824667, "lon": -75.1284411}, {"type": "node", "id": 10682204580, "lat": 39.9537491, "lon": -75.1957911, "tags": {"addr:city": "Philadelphia", "addr:housenumber": "3600", "addr:postcode": "19104", "addr:state": "PA", "addr:street": "Sansom Street", "amenity": "bar", "name": "The Living Room Lounge"}}, {"type": "node", "id": 10728686424, "lat": 40.001169, "lon": -75.2150677, "tags": {"amenity": "bar", "name": "Five Points Cocktails"}}, {"type": "node", "id": 10916408098, "lat": 40.0292953, "lon": -75.2067285, "tags": {"amenity": "bar", "check_date": "2024-08-14", "height": "11.27", "name": "Henry James Saloon", "opening_hours": "11:00-23:00", "outdoor_seating": "no", "smoking": "outside", "source": "esri/Philadelphia_PA_Buildings_OSM"}}, {"type": "node", "id": 10951764737, "lat": 40.0421188, "lon": -75.226421}, {"type": "node", "id": 10951764738, "lat": 40.0421647, "lon": -75.2263648}, {"type": "node", "id": 10951764739, "lat": 40.042161, "lon": -75.2263595}, {"type": "node", "id": 10951764740, "lat": 40.042189, "lon": -75.2263253}, {"type": "node", "id": 11018275014, "lat": 39.9521242, "lon": -75.174893, "tags": {"addr:city": "Philadelphia", "addr:housenumber": "2034", "addr:state": "PA", "addr:street": "Chestnut Street", "amenity": "bar", "check_date": "2023-10-10", "contact:facebook": "https://www.facebook.com/ButcherBarPHL", "name": "Butcher Bar", "opening_hours": "Mo 11:30-22:00, Tu,Fr-Sa 11:30-26:00, We-Th 11:30-23:00, Su 10:30-22:00", "phone": "+1 215-563-6328", "website": "http://www.butcherbarphilly.com"}}, {"type": "node", "id": 11020598865, "lat": 39.9481263, "lon": -75.1432848, "tags": {"addr:city": "Philadelphia", "addr:housenumber": "118", "addr:postcode": "19106", "addr:street": "Chestnut Street", "amenity": "bar", "check_date": "2023-10-17", "contact:instagram": "https://www.instagram.com/buffalo_billiards", "min_age": "21", "name": "Buffalo Billiards", "opening_hours": "Mo-Fr 16:00-26:00, Sa-Su 14:00-26:00", "phone": "+1 215-574-7665", "website": "https://www.buffalobilliardsphilly.com"}}, {"type": "node", "id": 11055837200, "lat": 40.0341133, "lon": -75.2157644, "tags": {"amenity": "bar", "check_date": "2024-07-10", "check_date:opening_hours": "2023-07-26", "indoor_seating": "yes", "name": "Peck Miller's Bar", "opening_hours:signed": "no", "outdoor_seating": "no"}}, {"type": "node", "id": 11073875052, "lat": 40.0237853, "lon": -75.2201655, "tags": {"amenity": "bar", "check_date": "2023-12-26", "indoor_seating": "yes", "name": "The Goat's Beard", "outdoor_seating": "yes"}}, {"type": "node", "id": 11073875065, "lat": 40.0241077, "lon": -75.2205884, "tags": {"amenity": "bar", "check_date": "2023-07-28", "name": "Vira Vookah Lounge"}}, {"type": "node", "id": 11073875079, "lat": 40.0250093, "lon": -75.2222149, "tags": {"amenity": "bar", "check_date": "2023-07-28", "check_date:opening_hours": "2023-09-26", "name": "Somo Lounge", "opening_hours:signed": "no"}}, {"type": "node", "id": 11087738720, "lat": 39.9953286, "lon": -75.129685}, {"type": "node", "id": 11087738751, "lat": 39.9953893, "lon": -75.1297832}, {"type": "node", "id": 11087738760, "lat": 39.9953814, "lon": -75.1297848}, {"type": "node", "id": 11087738884, "lat": 39.9953306, "lon": -75.1297011}, {"type": "node", "id": 11087738916, "lat": 39.995384, "lon": -75.1297398}, {"type": "node", "id": 11087738925, "lat": 39.9953272, "lon": -75.1297018}, {"type": "node", "id": 11087738952, "lat": 39.9953752, "lon": -75.1297416}, {"type": "node", "id": 11087739082, "lat": 39.9953459, "lon": -75.1298538}, {"type": "node", "id": 11087739111, "lat": 39.9953673, "lon": -75.1296769}, {"type": "node", "id": 11099160817, "lat": 39.9944656, "lon": -75.1212595}, {"type": "node", "id": 11099160921, "lat": 39.9944634, "lon": -75.1212362}, {"type": "node", "id": 11099161052, "lat": 39.9944648, "lon": -75.1212538}, {"type": "node", "id": 11099161159, "lat": 39.9944354, "lon": -75.1210219}, {"type": "node", "id": 11099161190, "lat": 39.9945122, "lon": -75.1212425}, {"type": "node", "id": 11099161533, "lat": 39.9944203, "lon": -75.1212694}, {"type": "node", "id": 11099161637, "lat": 39.9945098, "lon": -75.1212233}, {"type": "node", "id": 11171814638, "lat": 40.0313905, "lon": -75.207866, "tags": {"amenity": "bar", "check_date": "2023-09-05", "check_date:opening_hours": "2023-10-13", "name": "Murphy's Tavern", "opening_hours:signed": "no"}}, {"type": "node", "id": 11220871802, "lat": 40.02569, "lon": -75.2231548, "tags": {"amenity": "bar", "check_date": "2023-09-26", "check_date:opening_hours": "2024-06-29", "indoor_seating": "yes", "name": "The Grape Room", "opening_hours:signed": "no", "outdoor_seating": "no"}}, {"type": "node", "id": 11231061192, "lat": 40.0263208, "lon": -75.2155316, "tags": {"amenity": "bar", "check_date": "2023-10-01", "check_date:opening_hours": "2024-05-17", "indoor_seating": "yes", "name": "Scanlon's Saloon", "opening_hours:signed": "no", "outdoor_seating": "sidewalk", "wheelchair": "no"}}, {"type": "node", "id": 11286955414, "lat": 39.9717639, "lon": -75.1288208}, {"type": "node", "id": 11286955439, "lat": 39.9719025, "lon": -75.1285297}, {"type": "node", "id": 11286956070, "lat": 39.9719204, "lon": -75.1285402}, {"type": "node", "id": 11286956077, "lat": 39.971845, "lon": -75.1287426}, {"type": "node", "id": 11286956106, "lat": 39.9718834, "lon": -75.1286047}, {"type": "node", "id": 11286956112, "lat": 39.9718295, "lon": -75.128765}, {"type": "node", "id": 11286956165, "lat": 39.9714939, "lon": -75.1272577}, {"type": "node", "id": 11286956167, "lat": 39.9714462, "lon": -75.1273613}, {"type": "node", "id": 11286956189, "lat": 39.9718023, "lon": -75.1288433}, {"type": "node", "id": 11286956225, "lat": 39.9718713, "lon": -75.1285114}, {"type": "node", "id": 11286956260, "lat": 39.9718372, "lon": -75.128738}, {"type": "node", "id": 11286956281, "lat": 39.9718955, "lon": -75.1286118}, {"type": "node", "id": 11286956287, "lat": 39.9718359, "lon": -75.1287687}, {"type": "node", "id": 11286956308, "lat": 39.9714924, "lon": -75.127262}, {"type": "node", "id": 11286956310, "lat": 39.9715269, "lon": -75.1274074}, {"type": "node", "id": 11289679609, "lat": 39.9686782, "lon": -75.1343098}, {"type": "node", "id": 11289679663, "lat": 39.9690014, "lon": -75.1334103}, {"type": "node", "id": 11289684237, "lat": 39.968622, "lon": -75.1340205}, {"type": "node", "id": 11289684243, "lat": 39.9689821, "lon": -75.1334645}, {"type": "node", "id": 11289684324, "lat": 39.9686254, "lon": -75.1340224}, {"type": "node", "id": 11289684385, "lat": 39.9686879, "lon": -75.1340582}, {"type": "node", "id": 11289684457, "lat": 39.9689079, "lon": -75.1333549}, {"type": "node", "id": 11289684514, "lat": 39.9687476, "lon": -75.1341038}, {"type": "node", "id": 11289684537, "lat": 39.96884, "lon": -75.1333808}, {"type": "node", "id": 11289684571, "lat": 39.9686847, "lon": -75.1340677}, {"type": "node", "id": 11291707745, "lat": 39.9687517, "lon": -75.1361576, "tags": {"entrance": "main"}}, {"type": "node", "id": 11291759571, "lat": 39.96864, "lon": -75.1361228}, {"type": "node", "id": 11291759575, "lat": 39.968739, "lon": -75.1360908}, {"type": "node", "id": 11291759651, "lat": 39.9686538, "lon": -75.1361954}, {"type": "node", "id": 11299984542, "lat": 39.9824885, "lon": -75.1282589}, {"type": "node", "id": 11299984551, "lat": 39.9825606, "lon": -75.1282555}, {"type": "node", "id": 11300013493, "lat": 39.9825114, "lon": -75.1282134}, {"type": "node", "id": 11300013593, "lat": 39.9824183, "lon": -75.1283985}, {"type": "node", "id": 11309742975, "lat": 39.9923492, "lon": -75.1301204}, {"type": "node", "id": 11309743129, "lat": 39.9923693, "lon": -75.1302487}, {"type": "node", "id": 11309743236, "lat": 39.9922998, "lon": -75.130132}, {"type": "node", "id": 11309743389, "lat": 39.9923631, "lon": -75.1302198}, {"type": "node", "id": 11309743547, "lat": 39.992374, "lon": -75.1302476}, {"type": "node", "id": 11309743550, "lat": 39.9924053, "lon": -75.1304721}, {"type": "node", "id": 11427350103, "lat": 39.9308367, "lon": -75.1621624}, {"type": "node", "id": 11427350116, "lat": 39.9307989, "lon": -75.1622085}, {"type": "node", "id": 11427350177, "lat": 39.9307764, "lon": -75.1621271}, {"type": "node", "id": 11427350209, "lat": 39.9308244, "lon": -75.1621418}, {"type": "node", "id": 11427350259, "lat": 39.9307929, "lon": -75.1619028}, {"type": "node", "id": 11427350289, "lat": 39.9307844, "lon": -75.162189}, {"type": "node", "id": 11427350335, "lat": 39.9307566, "lon": -75.1619108}, {"type": "node", "id": 11427834878, "lat": 39.9298354, "lon": -75.1596075}, {"type": "node", "id": 11427834900, "lat": 39.9298415, "lon": -75.1597163}, {"type": "node", "id": 11427834913, "lat": 39.9299062, "lon": -75.159768}, {"type": "node", "id": 11427834923, "lat": 39.9298446, "lon": -75.159681}, {"type": "node", "id": 11427834942, "lat": 39.9298651, "lon": -75.1597751}, {"type": "node", "id": 11427834975, "lat": 39.9298329, "lon": -75.1595735}, {"type": "node", "id": 11427834987, "lat": 39.9298391, "lon": -75.1596983}, {"type": "node", "id": 11427834997, "lat": 39.92982, "lon": -75.1595235}, {"type": "node", "id": 11427835006, "lat": 39.9298419, "lon": -75.1596608}, {"type": "node", "id": 11427835024, "lat": 39.9298645, "lon": -75.159771}, {"type": "node", "id": 11427835079, "lat": 39.9298281, "lon": -75.1595217}, {"type": "node", "id": 11427835092, "lat": 39.9298327, "lon": -75.1596478}, {"type": "node", "id": 11427835146, "lat": 39.9298241, "lon": -75.1595543}, {"type": "node", "id": 11427835175, "lat": 39.9298729, "lon": -75.159512}, {"type": "node", "id": 11427835185, "lat": 39.9298299, "lon": -75.1596259}, {"type": "node", "id": 11427835208, "lat": 39.9298517, "lon": -75.1597325}, {"type": "node", "id": 11427835268, "lat": 39.9298783, "lon": -75.1595532}, {"type": "node", "id": 11444288312, "lat": 39.9334516, "lon": -75.1585666}, {"type": "node", "id": 11444288329, "lat": 39.9335729, "lon": -75.1588926}, {"type": "node", "id": 11444288338, "lat": 39.9334957, "lon": -75.1589623}, {"type": "node", "id": 11444288372, "lat": 39.9333979, "lon": -75.1585816}, {"type": "node", "id": 11444288409, "lat": 39.9335516, "lon": -75.1588602}, {"type": "node", "id": 11444288425, "lat": 39.933485, "lon": -75.1589361}, {"type": "node", "id": 11459691253, "lat": 40.0227373, "lon": -75.2144618, "tags": {"amenity": "bar", "check_date": "2024-09-15", "check_date:opening_hours": "2024-09-15", "indoor_seating": "yes", "name": "The Brass Tap", "opening_hours": "Mo 16:00-23:00, Tu,We 16:00-24:00, Th 16:00-01:00, Fr 15:00-02:00, Sa,Su 10:00-24:00", "outdoor_seating": "sidewalk", "wheelchair": "no"}}, {"type": "node", "id": 11477050535, "lat": 39.9312575, "lon": -75.1657645}, {"type": "node", "id": 11477050543, "lat": 39.9313202, "lon": -75.1659168}, {"type": "node", "id": 11477050561, "lat": 39.9312773, "lon": -75.1659258}, {"type": "node", "id": 11477088739, "lat": 39.9312541, "lon": -75.1657395}, {"type": "node", "id": 11477088749, "lat": 39.9312752, "lon": -75.1655817}, {"type": "node", "id": 11477088762, "lat": 39.931263, "lon": -75.1657633}, {"type": "node", "id": 11477088843, "lat": 39.9312747, "lon": -75.1655775}, {"type": "node", "id": 11477088893, "lat": 39.9312588, "lon": -75.1657384}, {"type": "node", "id": 11477088987, "lat": 39.9312429, "lon": -75.1656351}, {"type": "node", "id": 11477089065, "lat": 39.9312638, "lon": -75.1658261}, {"type": "node", "id": 11497892214, "lat": 39.9323549, "lon": -75.1610003}, {"type": "node", "id": 11497892247, "lat": 39.9323063, "lon": -75.1610113}, {"type": "node", "id": 11497904386, "lat": 39.9323659, "lon": -75.1610762}, {"type": "node", "id": 11497904664, "lat": 39.9323597, "lon": -75.161033}, {"type": "node", "id": 11497904779, "lat": 39.9323578, "lon": -75.1610199}, {"type": "node", "id": 11497904868, "lat": 39.9323373, "lon": -75.161211}, {"type": "node", "id": 11500642522, "lat": 39.9368979, "lon": -75.1667924}, {"type": "node", "id": 11500642535, "lat": 39.9368599, "lon": -75.1664904}, {"type": "node", "id": 11500642565, "lat": 39.9368408, "lon": -75.1668047}, {"type": "node", "id": 11500674580, "lat": 39.9368172, "lon": -75.1666206}, {"type": "node", "id": 11500717850, "lat": 39.9361657, "lon": -75.1620314}, {"type": "node", "id": 11500720675, "lat": 39.9361982, "lon": -75.161871}, {"type": "node", "id": 11500720692, "lat": 39.9361491, "lon": -75.1621386}, {"type": "node", "id": 11500720705, "lat": 39.9363154, "lon": -75.1624959}, {"type": "node", "id": 11500720770, "lat": 39.9361506, "lon": -75.1619924}, {"type": "node", "id": 11500720784, "lat": 39.9361639, "lon": -75.1620179}, {"type": "node", "id": 11500720824, "lat": 39.9361423, "lon": -75.1620885}, {"type": "node", "id": 11500720836, "lat": 39.9363158, "lon": -75.1618611}, {"type": "node", "id": 11500720868, "lat": 39.9361607, "lon": -75.1619901}, {"type": "node", "id": 11500720888, "lat": 39.9361544, "lon": -75.1620201}, {"type": "node", "id": 11500720901, "lat": 39.9364008, "lon": -75.1624902}, {"type": "node", "id": 11500720930, "lat": 39.9361622, "lon": -75.162084}, {"type": "node", "id": 11500720995, "lat": 39.9361555, "lon": -75.1620338}, {"type": "node", "id": 11500721011, "lat": 39.9363172, "lon": -75.1625092}, {"type": "node", "id": 11500721046, "lat": 39.9361805, "lon": -75.1621314}, {"type": "node", "id": 11501091219, "lat": 39.9362524, "lon": -75.1586145, "tags": {"amenity": "bar"}}, {"type": "node", "id": 11501173258, "lat": 39.9985, "lon": -75.1409233}, {"type": "node", "id": 11501173588, "lat": 39.9984994, "lon": -75.1409186}, {"type": "node", "id": 11501173767, "lat": 39.9985265, "lon": -75.1411749}, {"type": "node", "id": 11501173820, "lat": 39.9985414, "lon": -75.1409147}, {"type": "node", "id": 11501173917, "lat": 39.9985109, "lon": -75.1411532}, {"type": "node", "id": 11501174044, "lat": 39.9984812, "lon": -75.1409275}, {"type": "node", "id": 11501174706, "lat": 39.9985233, "lon": -75.1411504}, {"type": "node", "id": 11501174839, "lat": 39.9985332, "lon": -75.1409111}, {"type": "node", "id": 11501175017, "lat": 39.9985742, "lon": -75.1411647}, {"type": "node", "id": 11503497619, "lat": 39.9950336, "lon": -75.1388437}, {"type": "node", "id": 11503497728, "lat": 39.9950229, "lon": -75.1388459}, {"type": "node", "id": 11503497906, "lat": 39.9949688, "lon": -75.1388517}, {"type": "node", "id": 11503498043, "lat": 39.9950293, "lon": -75.1389006}, {"type": "node", "id": 11503498080, "lat": 39.99495, "lon": -75.1386946}, {"type": "node", "id": 11503498291, "lat": 39.9950377, "lon": -75.1388773}, {"type": "node", "id": 11503498329, "lat": 39.9949759, "lon": -75.1389105}, {"type": "node", "id": 11503498467, "lat": 39.9950267, "lon": -75.1388796}, {"type": "node", "id": 11503906676, "lat": 39.9929284, "lon": -75.1346644}, {"type": "node", "id": 11503906680, "lat": 39.992918, "lon": -75.1348955}, {"type": "node", "id": 11503906683, "lat": 39.9929219, "lon": -75.1346494}, {"type": "node", "id": 11503906711, "lat": 39.992953, "lon": -75.1346743}, {"type": "node", "id": 11503906715, "lat": 39.9928982, "lon": -75.1346544}, {"type": "node", "id": 11503906723, "lat": 39.9929588, "lon": -75.1347136}, {"type": "node", "id": 11503906741, "lat": 39.9929406, "lon": -75.1346414}, {"type": "node", "id": 11503906745, "lat": 39.9929545, "lon": -75.1346533}, {"type": "node", "id": 11503906748, "lat": 39.9929701, "lon": -75.1348844}, {"type": "node", "id": 11503906755, "lat": 39.9929549, "lon": -75.1346826}, {"type": "node", "id": 11503914174, "lat": 39.9929314, "lon": -75.1346463}, {"type": "node", "id": 11503914177, "lat": 39.9929448, "lon": -75.1346848}, {"type": "node", "id": 11503914180, "lat": 39.9929665, "lon": -75.1348557}, {"type": "node", "id": 11503914183, "lat": 39.9929001, "lon": -75.1346692}, {"type": "node", "id": 11503914185, "lat": 39.9929546, "lon": -75.1347596}, {"type": "node", "id": 11503914197, "lat": 39.9929773, "lon": -75.1348534}, {"type": "node", "id": 11503914206, "lat": 39.9929444, "lon": -75.1346809}, {"type": "node", "id": 11503914209, "lat": 39.9929125, "lon": -75.1348516}, {"type": "node", "id": 11503914213, "lat": 39.9928899, "lon": -75.1346714}, {"type": "node", "id": 11503914216, "lat": 39.9929479, "lon": -75.134716}, {"type": "node", "id": 11503914229, "lat": 39.9929617, "lon": -75.1347581}, {"type": "node", "id": 11587098600, "lat": 39.9718035, "lon": -75.1356184}, {"type": "node", "id": 11587098612, "lat": 39.9717705, "lon": -75.1354388}, {"type": "node", "id": 11650020624, "lat": 39.9644562, "lon": -75.1421983}, {"type": "node", "id": 11650020758, "lat": 39.9645369, "lon": -75.142536}, {"type": "node", "id": 11650021043, "lat": 39.9644612, "lon": -75.1421963}, {"type": "node", "id": 11650021109, "lat": 39.9645286, "lon": -75.1422974}, {"type": "node", "id": 11650021174, "lat": 39.964497, "lon": -75.1423689}, {"type": "node", "id": 11650021525, "lat": 39.9645406, "lon": -75.1422927}, {"type": "node", "id": 11674325269, "lat": 39.9887699, "lon": -75.0994413, "tags": {"addr:city": "Philadelphia", "addr:housenumber": "2537", "addr:postcode": "19134", "addr:state": "PA", "addr:street": "East Ontario Street", "amenity": "bar", "contact:facebook": "theshipyardbarphilly", "internet_access": "wlan", "name": "The Shipyard", "name:en": "The Shipyard Bar", "opening_hours": "Mo-Su 07:00-01:00"}}, {"type": "node", "id": 11885080042, "lat": 39.9215922, "lon": -75.1787625}, {"type": "node", "id": 11885080060, "lat": 39.9216379, "lon": -75.178741}, {"type": "node", "id": 11885102684, "lat": 39.9215724, "lon": -75.1785799}, {"type": "node", "id": 11897497290, "lat": 39.9515478, "lon": -75.1800806, "tags": {"amenity": "bar", "brewery": "Human Robot", "indoor_seating": "yes", "name": "Human Robot", "outdoor_seating": "yes"}}, {"type": "node", "id": 11901925862, "lat": 39.9506344, "lon": -75.1629339, "tags": {"addr:city": "Philadelphia", "addr:housenumber": "1326", "addr:street": "Chestnut Street", "amenity": "bar", "leisure": "amusement_arcade", "name": "Barcade", "opening_hours": "Mo-Su 12:00-02:00"}}, {"type": "node", "id": 11907872382, "lat": 39.9239275, "lon": -75.1787995}, {"type": "node", "id": 11907872460, "lat": 39.9240606, "lon": -75.1788412}, {"type": "node", "id": 11907872513, "lat": 39.923972, "lon": -75.1789441}, {"type": "node", "id": 11907872586, "lat": 39.9240405, "lon": -75.1789652}, {"type": "node", "id": 11907872782, "lat": 39.9239067, "lon": -75.1789102}, {"type": "node", "id": 11907872968, "lat": 39.9239744, "lon": -75.1789311}, {"type": "node", "id": 11908737571, "lat": 39.9664314, "lon": -75.1454646, "tags": {"addr:postcode": "19123", "amenity": "bar", "name": "Bardot", "website": "https://m.facebook.com/people/Bardot-Cafe/100063457602918/"}}, {"type": "node", "id": 11998100795, "lat": 39.9277306, "lon": -75.1770759}, {"type": "node", "id": 11998100898, "lat": 39.9277719, "lon": -75.1769616}, {"type": "node", "id": 11998100909, "lat": 39.927703, "lon": -75.1768649}, {"type": "node", "id": 12012931229, "lat": 39.9272719, "lon": -75.1714284}, {"type": "node", "id": 12012931230, "lat": 39.927348, "lon": -75.1714782}, {"type": "node", "id": 12012931245, "lat": 39.9271827, "lon": -75.1714704}, {"type": "node", "id": 12012931260, "lat": 39.9272447, "lon": -75.1714348}, {"type": "node", "id": 12012973694, "lat": 39.9272955, "lon": -75.1714232}, {"type": "node", "id": 12012973712, "lat": 39.9271892, "lon": -75.171469}, {"type": "node", "id": 12012973728, "lat": 39.9272516, "lon": -75.1714333}, {"type": "node", "id": 12012973767, "lat": 39.9272496, "lon": -75.171418}, {"type": "node", "id": 12012973804, "lat": 39.9272046, "lon": -75.1714292}, {"type": "node", "id": 12012973842, "lat": 39.9272697, "lon": -75.171414}, {"type": "node", "id": 12012973843, "lat": 39.9271931, "lon": -75.171511}, {"type": "node", "id": 12012973870, "lat": 39.9272935, "lon": -75.1714103}, {"type": "node", "id": 12012973883, "lat": 39.9272426, "lon": -75.1714209}, {"type": "node", "id": 12012973900, "lat": 39.9272062, "lon": -75.1714447}, {"type": "node", "id": 12012973953, "lat": 39.9273127, "lon": -75.1714066}, {"type": "node", "id": 12057913791, "lat": 39.9618324, "lon": -75.1739907, "tags": {"amenity": "bar", "name": "Rodin Garden Bar", "website": "https://rodinmuseum.org/visit/garden-bar"}}, {"type": "node", "id": 12068420908, "lat": 39.9690716, "lon": -75.1342608, "tags": {"addr:city": "Philadelphia", "addr:housenumber": "1201", "addr:postcode": "19125", "addr:state": "PA", "addr:street": "Frankford Avenue", "amenity": "bar", "min_age": "21", "name": "Johnny Brenda's Tavern"}}, {"type": "node", "id": 12068573588, "lat": 39.9705219, "lon": -75.1343011, "tags": {"addr:city": "Philadelphia", "addr:housenumber": "1301", "addr:postcode": "19125", "addr:state": "PA", "addr:street": "Frankford Avenue", "amenity": "bar", "name": "Fishtown Tavern", "opening_hours": "12:00-02:00", "smoking": "outside"}}, {"type": "node", "id": 12097958361, "lat": 39.9158331, "lon": -75.2388874}, {"type": "node", "id": 12097958362, "lat": 39.9158377, "lon": -75.2388929}, {"type": "node", "id": 12097958363, "lat": 39.9158358, "lon": -75.2388955}, {"type": "node", "id": 12097958364, "lat": 39.9159548, "lon": -75.2390365}, {"type": "node", "id": 12097958365, "lat": 39.9159846, "lon": -75.2389936}, {"type": "node", "id": 12097958366, "lat": 39.9158656, "lon": -75.2388525}, {"type": "node", "id": 12097958367, "lat": 39.9158593, "lon": -75.2388614}, {"type": "node", "id": 12097958368, "lat": 39.9158549, "lon": -75.2388561}, {"type": "node", "id": 12167123709, "lat": 39.9671954, "lon": -75.1729796}, {"type": "node", "id": 12167123711, "lat": 39.9669143, "lon": -75.1730427}, {"type": "node", "id": 12167124238, "lat": 39.9667406, "lon": -75.1729325}, {"type": "node", "id": 12167124240, "lat": 39.9669316, "lon": -75.1728936}, {"type": "node", "id": 12167124243, "lat": 39.9671934, "lon": -75.1728404}, {"type": "node", "id": 12169953109, "lat": 39.9668688, "lon": -75.1655613}, {"type": "node", "id": 12169953110, "lat": 39.966867, "lon": -75.1655469}, {"type": "node", "id": 12169953111, "lat": 39.9668718, "lon": -75.165546}, {"type": "node", "id": 12169953112, "lat": 39.9668671, "lon": -75.1655083}, {"type": "node", "id": 12169953113, "lat": 39.966873, "lon": -75.1654935}, {"type": "node", "id": 12169953114, "lat": 39.9668746, "lon": -75.1655058}, {"type": "node", "id": 12169953115, "lat": 39.9670034, "lon": -75.1654747}, {"type": "node", "id": 12228786312, "lat": 39.9620485, "lon": -75.1413513, "tags": {"addr:city": "Philadelphia", "addr:housenumber": "700", "addr:postcode": "19123", "addr:state": "PA", "addr:street": "North 2nd Street", "amenity": "bar", "name": "The 700", "phone": "+1-215-413-3181", "website": "https://the700.org/"}}, {"type": "node", "id": 12229584188, "lat": 39.9463475, "lon": -75.143478, "tags": {"addr:city": "Philadelphia", "addr:housenumber": "1", "addr:postcode": "19106", "addr:state": "PA", "addr:street": "Dock Street", "amenity": "bar", "name": "Society Commons", "phone": "+1-215-238-6000", "website": "https://www.marriott.com/en-us/hotels/phlmo-philadelphia-marriott-old-city/dining/"}}, {"type": "way", "id": 269853604, "nodes": [2749790461, 2749790457, 12012973953, 12012973870, 12012973694, 12012931229, 12012973842, 12012973767, 12012973728, 12012931260, 12012973883, 12012973804, 12012973900, 2749790464, 12012973712, 12012931245, 4366251786, 12012973843, 12012931230, 2749790461], "tags": {"addr:city": "Philadelphia", "addr:housenumber": "1509", "addr:postcode": "19145", "addr:state": "PA", "addr:street": "Mifflin Street", "amenity": "bar", "atm": "yes", "building": "yes", "building:levels": "2", "check_date": "2024-05-14", "contact:facebook": "https://www.facebook.com/southphiladelphiataproom", "cuisine": "gastropub", "food": "yes", "height": "11.27", "name": "South Philadelphia Tap Room", "opening_hours": "Mo-Fr 12:00-26:00, Sa-Su 11:00-26:00", "opening_hours:kitchen": "Mo-Th 12:00-23:00; Fr 12:00-24:00; Sa 11:00-24:00; Su 11:00-23:00", "outdoor_seating": "yes", "phone": "+1 215-271-7787", "source": "City of Philadelphia", "website": "https://southphiladelphiataproom.com/"}}, {"type": "way", "id": 270896130, "nodes": [11885080060, 2758582549, 11885102684, 11885080042, 2758582551, 2758582553, 11885080060], "tags": {"addr:city": "Philadelphia", "addr:housenumber": "2400", "addr:postcode": "19145", "addr:state": "PA", "addr:street": "South 19th Street", "amenity": "bar", "building": "yes", "height": "8.53", "name": "Tap Room on 19th", "opening_hours": "11:00-02:00", "phone": "+1 267-687-7817", "source": "City of Philadelphia"}}, {"type": "way", "id": 334264446, "nodes": [2848698991, 11500720675, 3413742084, 11500720868, 11500720770, 11500720888, 11500720784, 11500717850, 11500720995, 11500720930, 11500720824, 11500720692, 11500721046, 3413742085, 11500720705, 11500721011, 11500720901, 11500720836, 2848698991], "tags": {"addr:city": "Philadelphia", "addr:housenumber": "1100", "addr:postcode": "19147", "addr:state": "PA", "addr:street": "Washington Avenue", "amenity": "bar", "building": "yes", "height": "10.05", "name": "Red Lounge", "opening_hours": "Mo 18:00-02:00; Tu closed; We-Su 18:00-02:00", "phone": "+1-267-273-1237", "source": "City of Philadelphia"}}, {"type": "way", "id": 334658102, "nodes": [3417195707, 3417195708, 3531082351, 3531082350, 3413417149, 3417195707], "tags": {"addr:city": "Philadelphia", "addr:housenumber": "1511", "addr:postcode": "19102", "addr:street": "Locust Street", "amenity": "bar", "building": "yes", "building:levels": "1", "check_date": "2023-04-11", "contact:facebook": "https://www.facebook.com/misconductphl", "contact:phone": "+1 215-732-5797", "contact:website": "https://misconducttavern.com/rittenhouse/", "name": "Misconduct Tavern"}}, {"type": "way", "id": 334890739, "nodes": [11444288372, 11444288425, 11444288338, 3885206651, 11444288329, 11444288409, 11444288312, 4806012532, 4806012533, 11444288372], "tags": {"addr:city": "Philadelphia", "addr:housenumber": "1231", "addr:postcode": "19147", "addr:state": "PA", "addr:street": "East Passyunk Avenue", "amenity": "bar", "building": "yes", "contact:facebook": "garagephilly", "height": "13.41", "name": "The Garage", "opening_hours": "Mo-Fr 17:00-02:00, Sa,Su 12:00-02:00", "phone": "+1 215-278-2429", "smoking": "outside", "source": "City of Philadelphia", "website": "https://www.garagephilly.com/copy-of-passyunk-1"}}, {"type": "way", "id": 350991334, "nodes": [3567104221, 3567104222, 3567104223, 3567104224, 10300980672, 3567104221], "tags": {"addr:city": "Philadelphia", "addr:housenumber": "120", "addr:state": "PA", "addr:street": "South 23rd Street", "amenity": "bar", "building": "yes", "check_date": "2023-10-10", "contact:instagram": "https://www.instagram.com/bonnersirishpub", "name": "Bonner's Irish Pub", "phone": "+1 215-567-5748"}}, {"type": "way", "id": 373914374, "nodes": [12169953115, 12169953114, 12169953113, 3773468431, 3773468432, 12169953112, 12169953111, 12169953110, 12169953109, 3773468429, 3773468430, 12169953115], "tags": {"addr:city": "Philadelphia", "addr:housenumber": "1700", "addr:state": "PA", "addr:street": "Fairmount Avenue", "amenity": "bar", "building": "yes", "height": "11.27", "nonsquare": "yes", "source": "City of Philadelphia"}}, {"type": "way", "id": 401910417, "nodes": [4043212399, 11587098612, 11587098600, 4043212398, 4043212399], "tags": {"addr:city": "Philadelphia", "addr:housenumber": "1356", "addr:state": "PA", "addr:street": "North Front Street", "amenity": "bar", "building": "yes", "height": "11.58", "name": "The El Bar", "opening_hours": "Mo-Su 00:00-02:00,11:00-24:00", "outdoor_seating": "yes", "smoking": "outside", "source": "City of Philadelphia"}}, {"type": "way", "id": 428817661, "nodes": [11427835268, 11427835175, 11427835079, 11427834997, 11427835146, 4803936643, 11427834975, 11427834878, 11427835185, 11427835092, 11427835006, 11427834923, 11427834987, 11427834900, 11427835208, 4279223855, 11427835024, 11427834942, 4803936642, 4279223856, 11427834913, 11427835268], "tags": {"addr:city": "Philadelphia", "addr:housenumber": "1525", "addr:state": "PA", "addr:street": "South 9th Street", "amenity": "bar", "building": "yes", "height": "11.88", "name": "Grumpy's Tavern", "source": "City of Philadelphia"}}, {"type": "way", "id": 439006951, "nodes": [11497904386, 11497904664, 4366346431, 4366346430, 11497904779, 11497892214, 11497892247, 11497904868, 4366346432, 4366346433, 4366346434, 11497904386], "tags": {"addr:city": "Philadelphia", "addr:housenumber": "1338", "addr:postcode": "19147", "addr:state": "PA", "addr:street": "South 10th Street", "amenity": "bar", "building": "yes", "height": "12.1", "name": "Triangle Tavern", "smoking": "outside", "source": "City of Philadelphia"}}, {"type": "way", "id": 439036334, "nodes": [11477088749, 11477088843, 4366622416, 4533973396, 11477088987, 11477088893, 11477088739, 11477050535, 11477088762, 4366622417, 11477089065, 11477050561, 11477050543, 11477088749], "tags": {"addr:city": "Philadelphia", "addr:housenumber": "1503", "addr:postcode": "19147", "addr:state": "PA", "addr:street": "South 13th Street", "amenity": "bar", "building": "yes", "height": "11.58", "name": "Bonnie's Capistrano Bar", "opening_hours": "Mo-Th 07:00-00:00, Fr 07:00-02:00, Sa 09:00-02:00, Su closed", "smoking": "yes", "source": "City of Philadelphia"}}, {"type": "way", "id": 439036335, "nodes": [11427350259, 11427350335, 4366622423, 4366622424, 11427350177, 11427350289, 11427350116, 11427350103, 11427350209, 11427350259], "tags": {"addr:city": "Philadelphia", "addr:housenumber": "1501", "addr:postcode": "19147", "addr:state": "PA", "addr:street": "East Passyunk Avenue", "addr:unit": "3", "amenity": "bar", "building": "yes", "height": "11.27", "name": "Pub On Passyunk East", "source": "City of Philadelphia"}}, {"type": "way", "id": 456378263, "nodes": [11500642565, 11500642522, 11500642535, 4526388320, 4526388318, 11500674580, 11500642565], "tags": {"addr:city": "Philadelphia", "addr:housenumber": "1131", "addr:state": "PA", "addr:street": "South Broad Street", "amenity": "bar", "building": "yes", "height": "13.1", "name": "Solar Myth", "opening_hours": "Mo-Su 08:00-26:00", "shop": "music", "source": "City of Philadelphia", "website": "https://solarmythbar.com/"}}, {"type": "way", "id": 460568112, "nodes": [7519175761, 11907872460, 11907872382, 11907872782, 11907872968, 11907872513, 11907872586, 4562004002, 4562004000, 7519175761], "tags": {"addr:city": "Philadelphia", "addr:housenumber": "1927-1929", "addr:state": "PA", "addr:street": "West Passyunk Avenue", "addr:unit": "29", "amenity": "bar", "building": "yes", "check_date": "2024-05-14", "contact:facebook": "https://www.facebook.com/BreweryARS", "craft": "brewery", "height": "7.31", "name": "Brewery ARS", "opening_hours": "We-Th 16:00-21:00; Fr 16:00-22:00; Sa 12:00-22:00; Su 12:00-20:00", "phone": "+1 215-960-5173", "source": "City of Philadelphia", "website": "https://www.breweryars.com/"}}, {"type": "way", "id": 486628353, "nodes": [2699327332, 4792129563, 11998100898, 4792129564, 4792129565, 11998100909, 11998100795, 4792129566, 2699327332], "tags": {"addr:city": "Philadelphia", "addr:housenumber": "1901", "addr:postcode": "19145", "addr:state": "PA", "addr:street": "South 19th Street", "addr:unit": "3", "amenity": "bar", "building": "yes", "food": "yes", "height": "7.92", "internet_access": "no", "name": "Sit on It Bar", "opening_hours": "11:00 - 02:00", "phone": "+1 215-551-9389", "source": "City of Philadelphia"}}, {"type": "way", "id": 547167625, "nodes": [5286851196, 5286851197, 5286851199, 5286851200, 5286851198, 5286851195, 5286851196], "tags": {"amenity": "bar", "building": "yes", "name": "The Union Tap"}}, {"type": "way", "id": 568603549, "nodes": [5470214362, 5470214363, 5470214364, 5470214365, 5470214366, 5470214367, 5470214368, 5470214362], "tags": {"addr:housenumber": "427", "addr:street": "Rhawn Street", "amenity": "bar", "building": "yes", "contact:instagram": "https://www.instagram.com/foxchasetavern", "name": "Fox Chase Tavern"}}, {"type": "way", "id": 584780039, "nodes": [11286956167, 11286956310, 5589337629, 5589337628, 5589337627, 5589337626, 5589337625, 11286956308, 11286956165, 5589337630, 11286956167], "tags": {"addr:city": "Philadelphia", "addr:housenumber": "541", "addr:state": "PA", "addr:street": "East Girard Avenue", "amenity": "bar", "brewery": "yes", "building": "yes", "height": "10.97", "name": "Kraftwork", "outdoor_seating": "yes", "source": "City of Philadelphia"}}, {"type": "way", "id": 628136773, "nodes": [5930024329, 5930024330, 5930024331, 5930024328, 5930024329], "tags": {"amenity": "bar", "building": "yes", "name": "Sweeney's Veree Tavern"}}, {"type": "way", "id": 782572287, "nodes": [7307810558, 7307810559, 7307810560, 10951764740, 10951764739, 10951764738, 10951764737, 7307810561, 7307810558], "tags": {"amenity": "bar", "building": "yes", "name": "Pop Pops 2"}}, {"type": "way", "id": 789715192, "nodes": [7383406647, 7383406643, 7383406638, 7383406636, 7383406631, 7383406647], "tags": {"amenity": "bar", "name": "Philadelphia Brewing Company Peacock Room Bar & Garden"}}, {"type": "way", "id": 794794361, "nodes": [5413260221, 7433918009, 7433918010, 3460931547, 5413260221], "tags": {"amenity": "bar", "building": "yes", "name": "Bainbridge Street Barrel House"}}, {"type": "way", "id": 909177961, "nodes": [11289684324, 11289684237, 8441665850, 8441665849, 8441665848, 8441665847, 11289679609, 11289684514, 11289684571, 11289684385, 11289684324], "tags": {"addr:city": "Philadelphia", "addr:housenumber": "100", "addr:postcode": "19125", "addr:state": "PA", "addr:street": "East Girard Avenue", "addr:unit": "6", "amenity": "bar", "building": "yes", "height": "10.6", "min_age": "21", "name": "Garage Fishtown", "source": "City of Philadelphia"}}, {"type": "way", "id": 909177967, "nodes": [11289684457, 8441665895, 8441665893, 11289684537, 11289684243, 11289679663, 11289684457], "tags": {"addr:city": "Philadelphia", "addr:housenumber": "202", "addr:postcode": "19125", "addr:state": "PA", "addr:street": "East Girard Avenue", "amenity": "bar", "building": "yes", "height": "11.58", "min_age": "21", "name": "Murph's Bar", "source": "City of Philadelphia"}}, {"type": "way", "id": 966635306, "nodes": [11650021525, 11650021109, 8943089059, 8943089060, 11650021043, 11650020624, 11650021174, 11650020758, 8943089061, 2613831410, 11650021525], "tags": {"addr:city": "Philadelphia", "addr:housenumber": "847", "addr:postcode": "19123", "addr:state": "PA", "addr:street": "North 3rd Street", "amenity": "bar", "building": "yes", "height": "17.67", "min_age": "21", "name": "Ortlieb's Lounge", "opening_hours": "Tu,Fr,Sa 18:00-26:00, We,Th,Su 18:00-24:00", "phone": "+1 267-324-3348", "source": "City of Philadelphia", "website": "https://www.ortliebsphilly.com/"}}, {"type": "way", "id": 1026177161, "nodes": [9461228249, 9461228250, 9461228251, 9461228252, 9461228249], "tags": {"amenity": "bar", "building": "yes"}}, {"type": "way", "id": 1099888899, "nodes": [10068995181, 10068995182, 10068995183, 10068995184, 10068995185, 10068995186, 10068995181], "tags": {"addr:city": "Philadelphia", "addr:housenumber": "339", "addr:postcode": "19107", "addr:state": "PA", "addr:street": "North 11th Street", "amenity": "bar", "building": "yes", "name": "The Trestle Inn"}}, {"type": "way", "id": 1107321334, "nodes": [11291759575, 11291759571, 11291759651, 10132124523, 11291707745, 11291759575], "tags": {"addr:city": "Philadelphia", "addr:housenumber": "1155", "addr:state": "PA", "addr:street": "North Front Street", "addr:unit": "57", "amenity": "bar", "building": "yes", "height": "12.8", "name": "JJ Mallons", "source": "City of Philadelphia"}}, {"type": "way", "id": 1194592773, "nodes": [11087738720, 11087738884, 11087738925, 11087739082, 5718820401, 11087738760, 11087738751, 11087738916, 11087738952, 11087739111, 11087738720], "tags": {"addr:city": "Philadelphia", "addr:housenumber": "2959", "addr:postcode": "19133", "addr:state": "PA", "addr:street": "North Front Street", "addr:unit": "61", "amenity": "bar", "building": "yes", "height": "8.53", "name": "L&G Cold Beer", "source": "City of Philadelphia"}}, {"type": "way", "id": 1196030450, "nodes": [11099161637, 11099160921, 11099161159, 5721511130, 11099161533, 11099160817, 11099161052, 11099161190, 11099161637], "tags": {"addr:city": "Philadelphia", "addr:housenumber": "3000", "addr:postcode": "19134", "addr:state": "PA", "addr:street": "Rorer Street", "amenity": "bar", "building": "yes", "height": "10.6", "name": "El Paso Fino", "source": "City of Philadelphia"}}, {"type": "way", "id": 1218089813, "nodes": [11286955439, 11286956225, 11286955414, 11286956189, 11286956112, 11286956287, 11286956077, 11286956260, 11286956106, 11286956281, 11286956070, 11286955439], "tags": {"addr:city": "Philadelphia", "addr:housenumber": "1235", "addr:postcode": "19125", "addr:state": "PA", "addr:street": "East Palmer Street", "amenity": "bar", "building": "yes", "cuisine": "american", "height": "7.0", "name": "Interstate Drafthouse", "source": "City of Philadelphia", "website": "https://interstatedrafthouse.com/"}}, {"type": "way", "id": 1219528042, "nodes": [11300013493, 11299984542, 11300013593, 10573876853, 11299984551, 11300013493], "tags": {"addr:city": "Philadelphia", "addr:housenumber": "2101", "addr:postcode": "19125", "addr:state": "PA", "addr:street": "East York Street", "amenity": "bar", "building": "yes", "height": "11.58", "level": "0,1", "min_age": "21", "name": "Monkey Club", "opening_hours": "Mo-Fr 16:00-02:00, Sa-Su 14:00-02:00", "source": "City of Philadelphia", "sport": "table_soccer;billiards;table_hockey", "website": "https://monkeyclubphilly.wordpress.com/"}}, {"type": "way", "id": 1220519339, "nodes": [11309743550, 11309743547, 11309743129, 11309743389, 11309742975, 11309743236, 5718812911, 11309743550], "tags": {"addr:city": "Philadelphia", "addr:housenumber": "2755", "addr:postcode": "19133", "addr:state": "PA", "addr:street": "North Front Street", "amenity": "bar", "building": "yes", "height": "10.6", "name": "La Familia", "source": "City of Philadelphia"}}, {"type": "way", "id": 1238160487, "nodes": [11501173820, 5714395576, 11501174839, 11501173588, 11501173258, 11501174044, 11501173917, 11501174706, 11501173767, 11501175017, 11501173820], "tags": {"addr:city": "Philadelphia", "addr:housenumber": "3100", "addr:postcode": "19133", "addr:state": "PA", "addr:street": "North 6th Street", "amenity": "bar", "building": "yes", "height": "12.49", "name": "Xanadu", "source": "City of Philadelphia"}}, {"type": "way", "id": 1238355257, "nodes": [11503497728, 5715419415, 11503498080, 11503497906, 11503498329, 11503498043, 11503498467, 11503498291, 11503497619, 11503497728], "tags": {"addr:city": "Philadelphia", "addr:housenumber": "2870", "addr:postcode": "19133", "addr:state": "PA", "addr:street": "North Lawrence Street", "amenity": "bar", "building": "yes", "height": "10.97", "name": "Arecibo Lounge", "source": "City of Philadelphia"}}, {"type": "way", "id": 1238391053, "nodes": [11503914185, 11503914216, 11503906723, 11503906755, 11503914177, 11503914206, 11503906711, 11503906745, 11503906741, 11503914174, 11503906676, 5716279473, 11503906683, 11503906715, 11503914183, 11503914213, 11503914209, 11503906680, 11503906748, 11503914180, 11503914197, 11503914229, 11503914185], "tags": {"addr:city": "Philadelphia", "addr:housenumber": "2762", "addr:postcode": "19133", "addr:state": "PA", "addr:street": "North 2nd Street", "amenity": "bar", "building": "yes", "height": "12.1", "name": "Marv Love's Too", "source": "City of Philadelphia"}}, {"type": "way", "id": 1306259686, "nodes": [12097958361, 12097958362, 12097958363, 12097958364, 12097958365, 12097958366, 12097958367, 12097958368, 12097958361], "tags": {"addr:city": "Philadelphia", "addr:housenumber": "7100", "addr:postcode": "19153", "addr:state": "PA", "addr:street": "Elmwood Avenue", "amenity": "bar", "building": "yes", "name": "Golden Kingdom II"}}, {"type": "way", "id": 1314520584, "nodes": [12167124240, 12167124238, 2002997662, 12167123711, 12167123709, 12167124243, 12167124240], "tags": {"addr:city": "Philadelphia", "addr:housenumber": "2120", "addr:postcode": "19130", "addr:state": "PA", "addr:street": "Fairmount Avenue", "addr:unit": "22", "amenity": "bar", "building": "yes", "designation": "Anna McPeak", "height": "8.22", "name": "Urban Saloon", "phone": "+1-215-232-5359", "source": "City of Philadelphia", "website": "urbansaloon.com"}}]}